{
  "type": "FeatureCollection",
  "features": [
    {
      "type": "Feature",
      "properties": {
        "norad_id": 38496,
        "name": "FENGYUN 1C DEB",
        "group": "fengyun-1c-debris",
        "lat": -48.29422236824306,
        "lon": 14.195883602454973,
        "alt_km": 818.799408683095,
        "timestamp": "2025-12-20T16:47:36.576773+00:00",
        "meta_object_name": "FENGYUN 1C DEB",
        "meta_object_id": "1999-025ESF",
        "meta_epoch": "2025-12-19T06:57:41.678208",
        "meta_mean_motion": 14.10020272,
        "meta_eccentricity": 0.0077623,
        "meta_inclination": 98.7629,
        "meta_ra_of_asc_node": 2.8558,
        "meta_arg_of_pericenter": 347.946,
        "meta_mean_anomaly": 11.9851,
        "meta_ephemeris_type": 0,
        "meta_classification_type": "U",
        "meta_norad_cat_id": 38496,
        "meta_element_set_no": 999,
        "meta_rev_at_epoch": 81113,
        "meta_bstar": 0.00061884,
        "meta_mean_motion_dot": 1.08e-05,
        "meta_mean_motion_ddot": 0,
        "tle_line1": "1 38496U 99025ESF 25353.29006572  .00001080  00000+0  61884-3 0  9992",
        "tle_line2": "2 38496  98.7629   2.8558 0077623 347.9460  11.9851 14.10020272811137"
      },
      "geometry": {
        "type": "Point",
        "coordinates": [
          14.195883602454973,
          -48.29422236824306
        ]
      }
    },
    {
      "type": "Feature",
      "properties": {
        "norad_id": 38498,
        "name": "FENGYUN 1C DEB",
        "group": "fengyun-1c-debris",
        "lat": 47.80417136298528,
        "lon": -155.0315325154396,
        "alt_km": 1153.942713661586,
        "timestamp": "2025-12-20T16:47:36.576783+00:00",
        "meta_object_name": "FENGYUN 1C DEB",
        "meta_object_id": "1999-025ESH",
        "meta_epoch": "2025-12-16T19:35:11.968800",
        "meta_mean_motion": 12.96623618,
        "meta_eccentricity": 0.05558926,
        "meta_inclination": 99.6982,
        "meta_ra_of_asc_node": 10.6357,
        "meta_arg_of_pericenter": 62.8897,
        "meta_mean_anomaly": 302.779,
        "meta_ephemeris_type": 0,
        "meta_classification_type": "U",
        "meta_norad_cat_id": 38498,
        "meta_element_set_no": 999,
        "meta_rev_at_epoch": 53796,
        "meta_bstar": 0.0025835338,
        "meta_mean_motion_dot": 1.475e-05,
        "meta_mean_motion_ddot": 0,
        "tle_line1": "1 38498U 99025ESH 25350.81611075  .00001475  00000+0  25835-2 0  9992",
        "tle_line2": "2 38498  99.6982  10.6357 0555892  62.8897 302.7790 12.96623618537965"
      },
      "geometry": {
        "type": "Point",
        "coordinates": [
          -155.0315325154396,
          47.80417136298528
        ]
      }
    },
    {
      "type": "Feature",
      "properties": {
        "norad_id": 38510,
        "name": "FENGYUN 1C DEB",
        "group": "fengyun-1c-debris",
        "lat": 11.030403666266944,
        "lon": 1.782023231223196,
        "alt_km": 879.8570968182757,
        "timestamp": "2025-12-20T16:47:36.576793+00:00",
        "meta_object_name": "FENGYUN 1C DEB",
        "meta_object_id": "1999-025ESV",
        "meta_epoch": "2025-12-16T07:23:50.761824",
        "meta_mean_motion": 14.13330157,
        "meta_eccentricity": 0.00990126,
        "meta_inclination": 98.6018,
        "meta_ra_of_asc_node": 359.2503,
        "meta_arg_of_pericenter": 139.579,
        "meta_mean_anomaly": 221.2794,
        "meta_ephemeris_type": 0,
        "meta_classification_type": "U",
        "meta_norad_cat_id": 38510,
        "meta_element_set_no": 999,
        "meta_rev_at_epoch": 88720,
        "meta_bstar": 0.00055421528,
        "meta_mean_motion_dot": 1.048e-05,
        "meta_mean_motion_ddot": 0,
        "tle_line1": "1 38510U 99025ESV 25350.30822641  .00001048  00000+0  55422-3 0  9996",
        "tle_line2": "2 38510  98.6018 359.2503 0099012 139.5790 221.2794 14.13330157887203"
      },
      "geometry": {
        "type": "Point",
        "coordinates": [
          1.782023231223196,
          11.030403666266944
        ]
      }
    },
    {
      "type": "Feature",
      "properties": {
        "norad_id": 38512,
        "name": "FENGYUN 1C DEB",
        "group": "fengyun-1c-debris",
        "lat": 5.070281673951014,
        "lon": -125.19845979081667,
        "alt_km": 950.5826765876782,
        "timestamp": "2025-12-20T16:47:36.576804+00:00",
        "meta_object_name": "FENGYUN 1C DEB",
        "meta_object_id": "1999-025ESX",
        "meta_epoch": "2025-12-10T03:21:08.986176",
        "meta_mean_motion": 13.7397021,
        "meta_eccentricity": 0.02264501,
        "meta_inclination": 98.3804,
        "meta_ra_of_asc_node": 226.2794,
        "meta_arg_of_pericenter": 112.1956,
        "meta_mean_anomaly": 250.339,
        "meta_ephemeris_type": 0,
        "meta_classification_type": "U",
        "meta_norad_cat_id": 38512,
        "meta_element_set_no": 999,
        "meta_rev_at_epoch": 59534,
        "meta_bstar": 0.0014232555,
        "meta_mean_motion_dot": 1.573e-05,
        "meta_mean_motion_ddot": 0,
        "tle_line1": "1 38512U 99025ESX 25344.13968734  .00001573  00000+0  14233-2 0  9993",
        "tle_line2": "2 38512  98.3804 226.2794 0226450 112.1956 250.3390 13.73970210595340"
      },
      "geometry": {
        "type": "Point",
        "coordinates": [
          -125.19845979081667,
          5.070281673951014
        ]
      }
    },
    {
      "type": "Feature",
      "properties": {
        "norad_id": 38514,
        "name": "FENGYUN 1C DEB",
        "group": "fengyun-1c-debris",
        "lat": -28.07423140833794,
        "lon": -160.80081346901935,
        "alt_km": 996.713371754242,
        "timestamp": "2025-12-20T16:47:36.576814+00:00",
        "meta_object_name": "FENGYUN 1C DEB",
        "meta_object_id": "1999-025ESZ",
        "meta_epoch": "2025-12-20T07:19:21.000288",
        "meta_mean_motion": 14.16016935,
        "meta_eccentricity": 0.0269906,
        "meta_inclination": 98.0552,
        "meta_ra_of_asc_node": 23.1735,
        "meta_arg_of_pericenter": 351.7155,
        "meta_mean_anomaly": 7.9609,
        "meta_ephemeris_type": 0,
        "meta_classification_type": "U",
        "meta_norad_cat_id": 38514,
        "meta_element_set_no": 999,
        "meta_rev_at_epoch": 88103,
        "meta_bstar": 0.0044468,
        "meta_mean_motion_dot": 0.00012488,
        "meta_mean_motion_ddot": 0,
        "tle_line1": "1 38514U 99025ESZ 25354.30510417  .00012488  00000+0  44468-2 0  9996",
        "tle_line2": "2 38514  98.0552  23.1735 0269906 351.7155   7.9609 14.16016935881039"
      },
      "geometry": {
        "type": "Point",
        "coordinates": [
          -160.80081346901935,
          -28.07423140833794
        ]
      }
    },
    {
      "type": "Feature",
      "properties": {
        "norad_id": 38516,
        "name": "FENGYUN 1C DEB",
        "group": "fengyun-1c-debris",
        "lat": -18.35650812008309,
        "lon": -18.74931225326868,
        "alt_km": 822.5110037230561,
        "timestamp": "2025-12-20T16:47:36.576824+00:00",
        "meta_object_name": "FENGYUN 1C DEB",
        "meta_object_id": "1999-025ETB",
        "meta_epoch": "2025-12-11T05:08:28.629600",
        "meta_mean_motion": 14.34046614,
        "meta_eccentricity": 0.01114605,
        "meta_inclination": 98.4424,
        "meta_ra_of_asc_node": 329.1639,
        "meta_arg_of_pericenter": 129.7908,
        "meta_mean_anomaly": 231.3156,
        "meta_ephemeris_type": 0,
        "meta_classification_type": "U",
        "meta_norad_cat_id": 38516,
        "meta_element_set_no": 999,
        "meta_rev_at_epoch": 84851,
        "meta_bstar": 0.00015782354,
        "meta_mean_motion_dot": 4.29e-06,
        "meta_mean_motion_ddot": 0,
        "tle_line1": "1 38516U 99025ETB 25345.21422025  .00000429  00000+0  15782-3 0  9995",
        "tle_line2": "2 38516  98.4424 329.1639 0111460 129.7908 231.3156 14.34046614848518"
      },
      "geometry": {
        "type": "Point",
        "coordinates": [
          -18.74931225326868,
          -18.35650812008309
        ]
      }
    },
    {
      "type": "Feature",
      "properties": {
        "norad_id": 38717,
        "name": "FENGYUN 1C DEB",
        "group": "fengyun-1c-debris",
        "lat": 21.374197697563677,
        "lon": -166.19128443916796,
        "alt_km": 865.7223472916612,
        "timestamp": "2025-12-20T16:47:36.576834+00:00",
        "meta_object_name": "FENGYUN 1C DEB",
        "meta_object_id": "1999-025ETJ",
        "meta_epoch": "2025-12-16T19:52:31.389312",
        "meta_mean_motion": 14.19963624,
        "meta_eccentricity": 0.00567162,
        "meta_inclination": 99.1594,
        "meta_ra_of_asc_node": 6.1834,
        "meta_arg_of_pericenter": 342.3119,
        "meta_mean_anomaly": 195.7889,
        "meta_ephemeris_type": 0,
        "meta_classification_type": "U",
        "meta_norad_cat_id": 38717,
        "meta_element_set_no": 999,
        "meta_rev_at_epoch": 58484,
        "meta_bstar": 0.001367751,
        "meta_mean_motion_dot": 2.907e-05,
        "meta_mean_motion_ddot": 0,
        "tle_line1": "1 38717U 99025ETJ 25350.82814108  .00002907  00000+0  13678-2 0  9992",
        "tle_line2": "2 38717  99.1594   6.1834 0056716 342.3119 195.7889 14.19963624584846"
      },
      "geometry": {
        "type": "Point",
        "coordinates": [
          -166.19128443916796,
          21.374197697563677
        ]
      }
    }
  ]
}